CCSDS_OMM_VERS = 2.0
CREATION_DATE  = 
ORIGINATOR     = 

OBJECT_NAME    = TRANSPORTER-15CY
OBJECT_ID      = 2025-276CY
CENTER_NAME    = EARTH
REF_FRAME      = TEME
TIME_SYSTEM    = UTC
MEAN_ELEMENT_THEORY = SGP/SGP4

EPOCH          = 2025-12-22T18:00:12.832128
MEAN_MOTION    = 15.18187642
ECCENTRICITY   = .0001573
INCLINATION    = 97.4399
RA_OF_ASC_NODE = 68.3639
ARG_OF_PERICENTER = 112.0023
MEAN_ANOMALY   = 248.1378

EPHEMERIS_TYPE = 0
CLASSIFICATION_TYPE = U
NORAD_CAT_ID   = 66760
ELEMENT_SET_NO = 999
REV_AT_EPOCH   = 364
BSTAR          = .50447E-3
MEAN_MOTION_DOT = .10252E-3
MEAN_MOTION_DDOT = 0

CCSDS_OMM_VERS = 2.0
CREATION_DATE  = 
ORIGINATOR     = 

OBJECT_NAME    = TRANSPORTER-15CZ
OBJECT_ID      = 2025-276CZ
CENTER_NAME    = EARTH
REF_FRAME      = TEME
TIME_SYSTEM    = UTC
MEAN_ELEMENT_THEORY = SGP/SGP4

EPOCH          = 2025-12-22T17:56:36.891744
MEAN_MOTION    = 15.18465607
ECCENTRICITY   = .0001603
INCLINATION    = 97.4398
RA_OF_ASC_NODE = 68.3670
ARG_OF_PERICENTER = 125.5574
MEAN_ANOMALY   = 234.5810

EPHEMERIS_TYPE = 0
CLASSIFICATION_TYPE = U
NORAD_CAT_ID   = 66761
ELEMENT_SET_NO = 999
REV_AT_EPOCH   = 364
BSTAR          = .55295E-3
MEAN_MOTION_DOT = .11336E-3
MEAN_MOTION_DDOT = 0

CCSDS_OMM_VERS = 2.0
CREATION_DATE  = 
ORIGINATOR     = 

OBJECT_NAME    = HYDROGNSS-1
OBJECT_ID      = 2025-276DA
CENTER_NAME    = EARTH
REF_FRAME      = TEME
TIME_SYSTEM    = UTC
MEAN_ELEMENT_THEORY = SGP/SGP4

EPOCH          = 2025-12-22T18:19:12.758304
MEAN_MOTION    = 15.17299185
ECCENTRICITY   = .0001023
INCLINATION    = 97.4408
RA_OF_ASC_NODE = 68.3493
ARG_OF_PERICENTER = 262.4791
MEAN_ANOMALY   = 97.6326

EPHEMERIS_TYPE = 0
CLASSIFICATION_TYPE = U
NORAD_CAT_ID   = 66762
ELEMENT_SET_NO = 999
REV_AT_EPOCH   = 364
BSTAR          = .45337E-3
MEAN_MOTION_DOT = .8973E-4
MEAN_MOTION_DDOT = 0

CCSDS_OMM_VERS = 2.0
CREATION_DATE  = 
ORIGINATOR     = 

OBJECT_NAME    = HYDROGNSS-2
OBJECT_ID      = 2025-276DB
CENTER_NAME    = EARTH
REF_FRAME      = TEME
TIME_SYSTEM    = UTC
MEAN_ELEMENT_THEORY = SGP/SGP4

EPOCH          = 2025-12-22T10:21:31.448736
MEAN_MOTION    = 15.17420203
ECCENTRICITY   = .00013861
INCLINATION    = 97.4416
RA_OF_ASC_NODE = 68.0320
ARG_OF_PERICENTER = 244.5475
MEAN_ANOMALY   = 115.5615

EPHEMERIS_TYPE = 0
CLASSIFICATION_TYPE = U
NORAD_CAT_ID   = 66763
ELEMENT_SET_NO = 999
REV_AT_EPOCH   = 359
BSTAR          = .19983047E-3
MEAN_MOTION_DOT = .3929E-4
MEAN_MOTION_DDOT = 0

CCSDS_OMM_VERS = 2.0
CREATION_DATE  = 
ORIGINATOR     = 

OBJECT_NAME    = TRANSPORTER-15DC
OBJECT_ID      = 2025-276DC
CENTER_NAME    = EARTH
REF_FRAME      = TEME
TIME_SYSTEM    = UTC
MEAN_ELEMENT_THEORY = SGP/SGP4

EPOCH          = 2025-12-22T18:10:02.053344
MEAN_MOTION    = 15.17692700
ECCENTRICITY   = .0002007
INCLINATION    = 97.4408
RA_OF_ASC_NODE = 68.3559
ARG_OF_PERICENTER = 196.1682
MEAN_ANOMALY   = 163.9488

EPHEMERIS_TYPE = 0
CLASSIFICATION_TYPE = U
NORAD_CAT_ID   = 66764
ELEMENT_SET_NO = 999
REV_AT_EPOCH   = 364
BSTAR          = .42761E-3
MEAN_MOTION_DOT = .8555E-4
MEAN_MOTION_DDOT = 0

CCSDS_OMM_VERS = 2.0
CREATION_DATE  = 
ORIGINATOR     = 

OBJECT_NAME    = TRANSPORTER-15DD
OBJECT_ID      = 2025-276DD
CENTER_NAME    = EARTH
REF_FRAME      = TEME
TIME_SYSTEM    = UTC
MEAN_ELEMENT_THEORY = SGP/SGP4

EPOCH          = 2025-12-22T11:32:18.810528
MEAN_MOTION    = 15.18714275
ECCENTRICITY   = .00018511
INCLINATION    = 97.4425
RA_OF_ASC_NODE = 68.1190
ARG_OF_PERICENTER = 119.4631
MEAN_ANOMALY   = 240.6788

EPHEMERIS_TYPE = 0
CLASSIFICATION_TYPE = U
NORAD_CAT_ID   = 66765
ELEMENT_SET_NO = 999
REV_AT_EPOCH   = 360
BSTAR          = .69233261E-3
MEAN_MOTION_DOT = .14318E-3
MEAN_MOTION_DDOT = 0

CCSDS_OMM_VERS = 2.0
CREATION_DATE  = 
ORIGINATOR     = 

OBJECT_NAME    = TRANSPORTER-15DE
OBJECT_ID      = 2025-276DE
CENTER_NAME    = EARTH
REF_FRAME      = TEME
TIME_SYSTEM    = UTC
MEAN_ELEMENT_THEORY = SGP/SGP4

EPOCH          = 2025-12-22T17:55:44.085792
MEAN_MOTION    = 15.18404112
ECCENTRICITY   = .000197
INCLINATION    = 97.4365
RA_OF_ASC_NODE = 68.3573
ARG_OF_PERICENTER = 89.4662
MEAN_ANOMALY   = 270.6797

EPHEMERIS_TYPE = 0
CLASSIFICATION_TYPE = U
NORAD_CAT_ID   = 66766
ELEMENT_SET_NO = 999
REV_AT_EPOCH   = 364
BSTAR          = .3866E-3
MEAN_MOTION_DOT = .7888E-4
MEAN_MOTION_DDOT = 0

CCSDS_OMM_VERS = 2.0
CREATION_DATE  = 
ORIGINATOR     = 

OBJECT_NAME    = TRANSPORTER-15DF
OBJECT_ID      = 2025-276DF
CENTER_NAME    = EARTH
REF_FRAME      = TEME
TIME_SYSTEM    = UTC
MEAN_ELEMENT_THEORY = SGP/SGP4

EPOCH          = 2025-12-22T17:56:54.506112
MEAN_MOTION    = 15.18308382
ECCENTRICITY   = .0002083
INCLINATION    = 97.4370
RA_OF_ASC_NODE = 68.3586
ARG_OF_PERICENTER = 90.5073
MEAN_ANOMALY   = 269.6400

EPHEMERIS_TYPE = 0
CLASSIFICATION_TYPE = U
NORAD_CAT_ID   = 66767
ELEMENT_SET_NO = 999
REV_AT_EPOCH   = 364
BSTAR          = .39914E-3
MEAN_MOTION_DOT = .8124E-4
MEAN_MOTION_DDOT = 0

CCSDS_OMM_VERS = 2.0
CREATION_DATE  = 
ORIGINATOR     = 

OBJECT_NAME    = TRANSPORTER-15DG
OBJECT_ID      = 2025-276DG
CENTER_NAME    = EARTH
REF_FRAME      = TEME
TIME_SYSTEM    = UTC
MEAN_ELEMENT_THEORY = SGP/SGP4

EPOCH          = 2025-12-22T11:34:19.971840
MEAN_MOTION    = 15.18512708
ECCENTRICITY   = .00021908
INCLINATION    = 97.4357
RA_OF_ASC_NODE = 68.0982
ARG_OF_PERICENTER = 76.9472
MEAN_ANOMALY   = 283.2007

EPHEMERIS_TYPE = 0
CLASSIFICATION_TYPE = U
NORAD_CAT_ID   = 66768
ELEMENT_SET_NO = 999
REV_AT_EPOCH   = 360
BSTAR          = .5986796E-3
MEAN_MOTION_DOT = .12297E-3
MEAN_MOTION_DDOT = 0

CCSDS_OMM_VERS = 2.0
CREATION_DATE  = 
ORIGINATOR     = 

OBJECT_NAME    = TRANSPORTER-15DH
OBJECT_ID      = 2025-276DH
CENTER_NAME    = EARTH
REF_FRAME      = TEME
TIME_SYSTEM    = UTC
MEAN_ELEMENT_THEORY = SGP/SGP4

EPOCH          = 2025-12-22T11:35:34.424448
MEAN_MOTION    = 15.18394503
ECCENTRICITY   = .00026806
INCLINATION    = 97.4420
RA_OF_ASC_NODE = 68.1147
ARG_OF_PERICENTER = 108.0442
MEAN_ANOMALY   = 252.1084

EPHEMERIS_TYPE = 0
CLASSIFICATION_TYPE = U
NORAD_CAT_ID   = 66769
ELEMENT_SET_NO = 999
REV_AT_EPOCH   = 360
BSTAR          = .27448432E-3
MEAN_MOTION_DOT = .5578E-4
MEAN_MOTION_DDOT = 0

CCSDS_OMM_VERS = 2.0
CREATION_DATE  = 
ORIGINATOR     = 

OBJECT_NAME    = TRANSPORTER-15DJ
OBJECT_ID      = 2025-276DJ
CENTER_NAME    = EARTH
REF_FRAME      = TEME
TIME_SYSTEM    = UTC
MEAN_ELEMENT_THEORY = SGP/SGP4

EPOCH          = 2025-12-22T11:35:04.852320
MEAN_MOTION    = 15.18395922
ECCENTRICITY   = .00030926
INCLINATION    = 97.4452
RA_OF_ASC_NODE = 68.1247
ARG_OF_PERICENTER = 124.2514
MEAN_ANOMALY   = 235.9013

EPHEMERIS_TYPE = 0
CLASSIFICATION_TYPE = U
NORAD_CAT_ID   = 66770
ELEMENT_SET_NO = 999
REV_AT_EPOCH   = 360
BSTAR          = .49688346E-3
MEAN_MOTION_DOT = .10158E-3
MEAN_MOTION_DDOT = 0

CCSDS_OMM_VERS = 2.0
CREATION_DATE  = 
ORIGINATOR     = 

OBJECT_NAME    = TRANSPORTER-15DK
OBJECT_ID      = 2025-276DK
CENTER_NAME    = EARTH
REF_FRAME      = TEME
TIME_SYSTEM    = UTC
MEAN_ELEMENT_THEORY = SGP/SGP4

EPOCH          = 2025-12-22T11:34:30.035712
MEAN_MOTION    = 15.18458154
ECCENTRICITY   = .0002929
INCLINATION    = 97.4446
RA_OF_ASC_NODE = 68.1231
ARG_OF_PERICENTER = 116.1421
MEAN_ANOMALY   = 244.0115

EPHEMERIS_TYPE = 0
CLASSIFICATION_TYPE = U
NORAD_CAT_ID   = 66771
ELEMENT_SET_NO = 999
REV_AT_EPOCH   = 360
BSTAR          = .43479261E-3
MEAN_MOTION_DOT = .8895E-4
MEAN_MOTION_DDOT = 0

