TRANSPORTER-15CY        
1 66760U 25276CY  25356.75014852  .00010252  00000+0  50447-3 0  9992
2 66760  97.4399  68.3639 0001573 112.0023 248.1378 15.18187642  3647
TRANSPORTER-15CZ        
1 66761U 25276CZ  25356.74764921  .00011336  00000+0  55295-3 0  9991
2 66761  97.4398  68.3670 0001603 125.5574 234.5810 15.18465607  3646
HYDROGNSS-1             
1 66762U 25276DA  25356.76334211  .00008973  00000+0  45337-3 0  9998
2 66762  97.4408  68.3493 0001023 262.4791  97.6326 15.17299185  3645
HYDROGNSS-2             
1 66763U 25276DB  25356.43161399  .00003929  00000+0  19983-3 0  9992
2 66763  97.4416  68.0320 0001386 244.5475 115.5615 15.17420203  3595
TRANSPORTER-15DC        
1 66764U 25276DC  25356.75696821  .00008555  00000+0  42761-3 0  9991
2 66764  97.4408  68.3559 0002007 196.1682 163.9488 15.17692700  3641
TRANSPORTER-15DD        
1 66765U 25276DD  25356.48077327  .00014318  00000+0  69233-3 0  9993
2 66765  97.4425  68.1190 0001851 119.4631 240.6788 15.18714275  3603
TRANSPORTER-15DE        
1 66766U 25276DE  25356.74703803  .00007888  00000+0  38660-3 0  9992
2 66766  97.4365  68.3573 0001970  89.4662 270.6797 15.18404112  3649
TRANSPORTER-15DF        
1 66767U 25276DF  25356.74785308  .00008124  00000+0  39914-3 0  9990
2 66767  97.4370  68.3586 0002083  90.5073 269.6400 15.18308382  3646
TRANSPORTER-15DG        
1 66768U 25276DG  25356.48217560  .00012297  00000+0  59868-3 0  9998
2 66768  97.4357  68.0982 0002190  76.9472 283.2007 15.18512708  3609
TRANSPORTER-15DH        
1 66769U 25276DH  25356.48303732  .00005578  00000+0  27448-3 0  9999
2 66769  97.4420  68.1147 0002680 108.0442 252.1084 15.18394503  3604
TRANSPORTER-15DJ        
1 66770U 25276DJ  25356.48269505  .00010158  00000+0  49688-3 0  9990
2 66770  97.4452  68.1247 0003092 124.2514 235.9013 15.18395922  3607
TRANSPORTER-15DK        
1 66771U 25276DK  25356.48229208  .00008895  00000+0  43479-3 0  9994
2 66771  97.4446  68.1231 0002929 116.1421 244.0115 15.18458154  3600
